{"spkid": "20826799", "covariance": {"epoch": "2458509.5", "data": [["5.777332088151868E-16", "-1.48735349377066E-15", "4.275245181641136E-14", "-1.256241827410651E-13", "1.090055581733931E-13", "1.289450586513385E-13"], ["-1.48735349377066E-15", "3.837814211479682E-15", "-1.301055122382866E-13", "3.245213498992333E-13", "-2.870726623487979E-13", "-3.367103110579508E-13"], ["4.275245181641136E-14", "-1.301055122382866E-13", "1.057989607527956E-10", "-2.381125110262651E-11", "7.212004240844121E-11", "2.535532301655262E-11"], ["-1.256241827410651E-13", "3.245213498992333E-13", "-2.381125110262651E-11", "1.044848714020202E-10", "-7.187320207731357E-11", "-9.241902477858311E-11"], ["1.090055581733931E-13", "-2.870726623487979E-13", "7.212004240844121E-11", "-7.187320207731357E-11", "1.02857133346348E-10", "7.379336048928319E-11"], ["1.289450586513385E-13", "-3.367103110579508E-13", "2.535532301655262E-11", "-9.241902477858311E-11", "7.379336048928319E-11", "3.142527227099315E-10"]], "elements": [{"value": ".6488292690317963", "title": "eccentricity", "units": null, "sigma": 2.40360813947529e-08, "name": "e", "label": "e"}, {"sigma": 6.19500945235734e-08, "name": "q", "units": "au", "value": ".8909485567521074", "title": "perihelion distance", "label": "q"}, {"value": "2458729.551903214585", "title": "time of perihelion passage", "units": "TDB", "name": "tp", "sigma": 1.02858621783881e-05, "label": "tp"}, {"label": "node", "value": "153.3273264789717", "title": "longitude of the ascending node", "units": "deg", "sigma": 1.02217841594323e-05, "name": "om"}, {"label": "peri", "value": "224.215172028827", "title": "argument of perihelion", "units": "deg", "sigma": 1.01418505878537e-05, "name": "w"}, {"title": "inclination", "value": "40.262760706253", "units": "deg", "sigma": 1.77271746962095e-05, "name": "i", "label": "i"}], "labels": ["e", "q", "tp", "node", "peri", "i"]}, "elements": [{"label": "e", "units": null, "title": "eccentricity", "value": ".6490420822438004", "name": "e", "sigma": "2.4054E-8"}, {"label": "a", "title": "semi-major axis", "value": "2.535188101548439", "units": "au", "name": "a", "sigma": "8.6826E-9"}, {"sigma": "6.1963E-8", "name": "q", "value": ".8897443372397328", "title": "perihelion distance", "units": "au", "label": "q"}, {"title": "inclination; angle with respect to x-y ecliptic plane", "value": "40.25734410816131", "units": "deg", "sigma": "1.7725E-5", "name": "i", "label": "i"}, {"label": "node", "title": "longitude of the ascending node", "value": "153.2862164369747", "units": "deg", "name": "om", "sigma": "1.0226E-5"}, {"label": "peri", "units": "deg", "title": "argument of perihelion", "value": "224.2754034488994", "name": "w", "sigma": "1.0137E-5"}, {"name": "ma", "sigma": "2.2791E-6", "units": "deg", "title": "mean anomaly", "value": "243.1608554921478", "label": "M"}, {"label": "tp", "units": "TDB", "title": "time of perihelion passage", "value": "2461679.019429603685", "name": "tp", "sigma": "1.1014E-5"}, {"name": "per", "sigma": "7.5743E-6", "title": "sidereal orbital period", "value": "1474.394522340495", "units": "d", "label": "period"}, {"label": "n", "value": ".244168025955852", "title": "mean motion", "units": "deg/d", "sigma": "1.2544E-9", "name": "n"}, {"label": "Q", "units": "au", "value": "4.180631865857145", "title": "aphelion distance", "name": "ad", "sigma": "1.4318E-8"}], "epoch": "2461200.5"}